C/2024 G5 (Leonard),e,50.3870,316.3947,209.5736,562.6614,0.0000738,0.99475183,0.0000,09/07.0352/2024,2000,g 13.0,4.0
# From MPEC 2024-RQ6
C/2024 G6 (ATLAS),h,02/20.8178/2026,120.4567,250.9520,23.4471,1.002265,6.429532,2000,5.5,4.0
# From MPEC 2024-Q20
C/2024 G7 (ATLAS),h,02/10.1351/2025,131.5167,191.9590,289.6567,1.001916,6.027711,2000,7.0,4.0
# From MPEC 2024-Q05
A/2024 G8,e,97.4101,11.2481,249.1581,142.1102,0.0005818,0.99174970,0.0000,06/15.5923/2024,2000,g 20.0,2.0
# From MPEC 2024-JU4
P/2024 J1 (PANSTARRS),e,13.1587,321.9411,200.3573,3.808498,0.1326092,0.30767931,66.0045,03/23.0/2025,2000,g 14.5,4.0
# From MPEC 2025-DP4
C/2024 J2 (Wierzchos),e,79.2972,189.0592,143.1592,147.2133,0.0005518,0.98769888,0.0000,03/19.7828/2025,2000,g 11.5,4.0
# From MPEC 2025-EG2
C/2024 J3 (ATLAS),h,11/25.2976/2026,75.6392,285.9612,74.0896,1.000855,3.864984,2000,5.0,4.0
# From MPEC 2025-EG2
C/2024 J4 (Lemmon),e,117.5318,19.3032,127.8568,6326,0.0000020,0.99909972,0.0000,04/26.0032/2025,2000,g  8.0,4.0
# From MPEC 2024-LB4
P/2024 K1 (PANSTARRS),e,1.7862,251.6908,351.9345,6.845260,0.0550325,0.49517403,17.5014,03/23.0/2025,2000,g 13.5,4.0
# From MPEC 2024-RQ6
C/2024 L1 (PANSTARRS),e,99.1667,45.1408,171.8091,11.46324,0.0253947,0.53347207,359.2055,03/23.0/2025,2000,g 10.0,4.0
# From MPEC 2024-P23
C/2024 L2 (PANSTARRS),e,139.4879,266.2857,345.6265,470.1887,0.0000967,0.98229164,0.0000,06/12.9570/2025,2000,g  7.5,3.2
# From MPEC 2024-RQ6
C/2024 L3 (PANSTARRS),h,11/24.2617/2023,111.5925,294.9931,59.0814,1.004133,6.858054,2000,9.5,4.0
# From MPEC 2025-DN8
P/2024 L4 (Rankin),e,10.0470,139.7789,53.6973,2.228206,0.2963269,0.69843041,101.5515,03/23.0/2025,2000,g 21.5,4.0
# From MPEC 2025-EG2
C/2024 L5 (ATLAS),h,03/10.3970/2025,166.5732,139.1765,290.5144,1.037260,3.432401,2000,9.0,4.0
# From MPEC 2025-EG2
C/2024 M1 (ATLAS),e,73.7098,76.2150,345.5906,29.87092,0.0060371,0.94297813,0.7425,03/23.0/2025,2000,g 12.0,4.0
# From MPEC 2024-RQ6
C/2024 N1 (PANSTARRS),h,10/18.8967/2025,88.7763,323.0162,91.2545,1.000845,4.398125,2000,10.5,4.0
# From MPEC 2025-EG2
C/2024 N3 (Sarneczky),h,04/11.4065/2025,88.7289,82.6082,86.8813,1.001208,5.014562,2000,8.0,4.0
# From MPEC 2025-EG2
C/2024 N4 (Sarneczky),h,01/10.0498/2025,49.7721,339.6608,116.6872,1.004493,5.397681,2000,7.5,4.0
# From MPEC 2024-PC5
C/2024 O1 (PANSTARRS),h,01/28.6913/2023,59.0778,303.3399,349.9008,1.000841,6.607344,2000,8.5,4.0
# From MPEC 2024-UA9
P/2024 O2 (PANSTARRS),e,28.9760,6.8054,310.7881,7.383446,0.0491265,0.49919834,16.5464,03/23.0/2025,2000,g 12.0,4.0
# From MPEC 2025-A40
P/2024 OC2 (PANSTARRS),e,7.6713,136.6172,258.5379,2.625614,0.2316636,0.77420649,38.1497,03/23.0/2025,2000,g 20.5,4.0
# From MPEC 2025-EG2
C/2024 PN7 (PANSTARRS),e,101.2100,358.5837,74.2737,67.38455,0.0017818,0.97737547,0.0000,12/06.4382/2024,2000,g 15.2,4.0
# From MPEC 2024-UQ8
P/2024 Q1 (PANSTARRS),e,5.0143,23.1343,284.4488,3.518925,0.1493100,0.53485272,42.0188,03/23.0/2025,2000,g 17.0,4.0
# From MPEC 2024-TD8
C/2024 Q3 (PANSTARRS),h,03/05.2331/2025,121.3769,337.2862,70.1319,1.001398,2.091471,2000,15.0,4.0
# From MPEC 2025-EG2
C/2024 Q4 (PANSTARRS),e,3.3130,324.2893,133.0236,830.7481,0.0000412,0.99347710,0.0000,11/12.1578/2024,2000,g 10.0,4.0
# From MPEC 2024-TP3
P/2024 R1 (PANSTARRS),e,12.7366,84.9817,230.6237,3.452309,0.1536525,0.49302674,43.0622,03/23.0/2025,2000,g 18.0,4.0
# From MPEC 2025-CE3
P/2024 R2 (PANSTARRS),e,15.1159,193.0368,203.9678,3.149757,0.1763147,0.26865091,30.3467,03/23.0/2025,2000,g 15.5,4.0
# From MPEC 2024-YC7
P/2024 R3 (PANSTARRS),e,14.7256,33.2724,309.2015,3.199690,0.1722036,0.26696302,54.9194,03/23.0/2025,2000,g 15.0,4.0
# From MPEC 2024-YC7
C/2024 R4 (PANSTARRS),h,10/26.6239/2027,95.3573,345.9326,108.9853,1.002653,4.409584,2000,6.5,4.0
# From MPEC 2025-D44
C/2024 S1 (ATLAS),e,141.9375,347.2930,69.2834,87.43693,0.0012055,0.99990885,0.0000,10/28.4847/2024,2000,g 15.5,4.0
# From MPEC 2025-A40
P/2024 S2 (Rankin),e,7.5251,8.3454,49.1816,5.040837,0.0870863,0.59373937,16.3418,03/23.0/2025,2000,g 15.0,4.0
# From MPEC 2025-D44
P/2024 T1 (Rankin),e,17.6201,279.7104,164.8706,6.602032,0.0581015,0.65358728,10.0855,03/23.0/2025,2000,g 14.5,4.0
# From MPEC 2025-EB9
P/2024 T2 (Rankin),e,12.9289,113.0609,343.8290,6.173641,0.0642528,0.68052970,6.7248,03/23.0/2025,2000,g 16.0,4.0
# From MPEC 2025-CE3
C/2024 T3 (PANSTARRS),e,53.4834,74.8312,336.8899,84.32958,0.0012727,0.95593248,0.0099,03/23.0/2025,2000,g 11.5,4.0
# From MPEC 2025-CE3
C/2024 T5 (ATLAS),h,05/06.3229/2027,52.3871,100.6822,352.4268,1.001988,3.842601,2000,5.5,4.0
# From MPEC 2025-CE3
C/2024 U1 (PANSTARRS),e,128.7547,270.2633,188.0779,508.2578,0.0000860,0.99048516,0.0000,06/30.4567/2024,2000,g 10.0,4.0
# From MPEC 2025-EG2
A/2024 U2,h,01/14.1551/2026,120.6704,56.0697,29.7555,1.003317,8.181159,2000,12.0,2.0
# From MPEC 2025-EG2
C/2024 V1 (Borisov),e,54.6242,328.1946,168.6658,235.0344,0.0002735,0.99013562,0.0000,04/04.1079/2025,2000,g 14.8,4.0
# From MPEC 2024-YC7
C/2024 V2 (Sarneczky),e,95.9718,102.2019,13.7193,39.27415,0.0040045,0.96835113,0.5573,03/23.0/2025,2000,g 19.0,4.0
# From MPEC 2025-CE3
C/2024 W1 (PANSTARRS),e,83.2004,310.7277,256.7358,44.83976,0.0032825,0.94289201,0.0128,03/23.0/2025,2000,g 15.0,4.0
# From MPEC 2025-CE3
A/2024 W2,h,02/27.4817/2025,116.6304,241.9384,168.0143,1.003066,3.720725,2000,15.0,2.0
# From MPEC 2025-CE3
C/2024 X1 (Fazekas),e,6.4580,352.1464,124.2493,9.511941,0.0335970,0.59878554,355.5097,03/23.0/2025,2000,g 11.3,4.0
# From MPEC 2025-EG2
C/2024 X2 (ATLAS),e,109.2210,122.5231,315.7753,50.53992,0.0027432,0.92725853,359.7069,03/23.0/2025,2000,g  9.6,4.0
# From MPEC 2025-EG2
P/2024 X3 (PANSTARRS),e,2.9724,113.3649,352.9344,6.996862,0.0532536,0.62639535,10.5572,03/23.0/2025,2000,g 14.6,4.0
# From MPEC 2025-A40
C/2024 X4 (PANSTARRS),e,34.6690,258.9434,153.2861,10.05681,0.0309039,0.64155516,354.9660,03/23.0/2025,2000,g 12.6,4.0
# From MPEC 2025-CE3
C/2024 Y1 (Masek),e,64.7519,112.5445,238.1412,61.81406,0.0020280,0.98669631,0.0000,11/26.8600/2024,2000,g 17.6,4.0
# From MPEC 2025-CE3
A/2025 A1,h,03/12.1297/2027,33.4356,101.3295,68.0296,1.004051,5.344537,2000,9.0,4.0
# From MPEC 2025-EG2
P/2025 A2 (PANSTARRS),e,20.7334,189.3208,278.0613,5.084931,0.0859561,0.32222609,14.4612,03/23.0/2025,2000,g 13.2,4.0
# From MPEC 2025-EG2
C/2025 A3 (Tsuchinshan),e,9.9755,322.4323,222.2080,10.18837,0.0303073,0.43132494,349.2122,03/23.0/2025,2000,g  9.0,4.0
# From MPEC 2025-EB9
C/2025 A4 (PANSTARRS),e,32.0261,69.9071,102.8287,11.03987,0.0268694,0.65361179,1.8456,03/23.0/2025,2000,g 12.4,4.0
# From MPEC 2025-DP4
C/2025 A6 (Lemmon),e,143.6433,108.0967,132.9797,125.4538,0.0007014,0.99577940,0.0000,11/08.4992/2025,2000,g 13.2,4.0
# From MPEC 2025-EG2
A/2025 A7,e,133.6488,348.8437,195.5630,4197,0.0000036,0.99931303,0.0000,03/28.0944/2025,2000,g 14.0,2.0
# From MPEC 2025-D44
C/2025 B1 (PANSTARRS),h,06/26.8607/2025,39.6549,102.8453,23.5658,1.002076,3.529148,2000,12.0,4.0
# From MPEC 2025-DP4
C/2025 B2 (Borisov),h,09/11.5981/2026,91.7421,84.8639,78.8445,1.000782,8.238978,2000,6.2,4.0
# From MPEC 2025-EG2
P/2025 C1 (ATLAS),e,7.5198,9.1048,187.1581,4.181435,0.1152699,0.34332331,4.9567,03/23.0/2025,2000,g 10.8,4.0
# From MPEC 2025-DP4
C/2025 D1 (Groeller),h,05/19.6679/2028,84.4686,312.8968,185.8819,1.002920,14.119484,2000,1.2,4.0
# From MPEC 2025-EG2
P/2025 D2 (PANSTARRS),e,5.3342,256.7294,314.0624,8.917776,0.0370100,0.17813037,310.9901,03/23.0/2025,2000,g  8.2,4.0
# From MPEC 2025-EG2
P/2025 D3 (PANSTARRS),e,9.6442,186.6358,294.4580,3.966886,0.1247468,0.25245328,29.9788,03/23.0/2025,2000,g 14.7,4.0
# From MPEC 2025-EG2
P/2025 D4 (ATLAS),e,15.9409,233.1197,332.8886,8.899772,0.0371224,0.63426776,1.3632,03/23.0/2025,2000,g 13.2,4.0
# From MPEC 2025-E99
C/2025 D5 (PANSTARRS),e,73.3577,0.7353,211.4922,830.4804,0.0000412,0.99757750,0.0000,05/13.3014/2025,2000,g 17.6,4.0
# From MPEC 2025-F22
C/2025 D6 (ATLAS),e,145.7835,151.5020,285.3547,668.9207,0.0000570,0.99625838,0.0000,12/11.1879/2024,2000,g 13.2,4.0
# From MPEC 2025-EG2
C/2025 E1 (PANSTARRS),e,69.0732,344.6004,274.4608,2860,0.0000064,0.99860315,0.0000,09/23.4524/2026,2000,g  9.7,4.0
# From  98, 1083
1P/Halley,e,162.2121,59.6567,112.5669,17.86468,0.0130530,0.96728515,186.2336,03/23.0/2025,2000,g  4.0,6.0
# From MPEC 2024-TP3
2P/Encke,e,11.3433,334.0142,187.2798,2.218206,0.2983329,0.84708982,154.3665,03/23.0/2025,2000,g 11.5,6.0
# From  76, 1135
3D/Biela,e,7.8877,276.1871,192.2961,3.539218,0.1480277,0.76754654,345.9078,03/23.0/2025,2000,g 11.0,6.0
# From  76, 1135
3D-A/Biela,e,7.2156,276.6834,192.1238,3.550328,0.1473335,0.76711589,16.3360,03/23.0/2025,2000,g 11.0,6.0
# From  76, 1135
3D-B/Biela,e,7.8798,276.2019,192.2573,3.539949,0.1479819,0.76784447,345.6345,03/23.0/2025,2000,g 11.0,6.0
# From MPEC 2023-FK0
4P/Faye,e,8.0040,192.9143,207.1365,3.829733,0.1315078,0.57641569,169.7664,03/23.0/2025,2000,g  8.0,6.0
# From  27, 116
5D/Brorsen,e,18.6310,94.9066,20.3013,3.158407,0.1755908,0.83785698,123.9159,03/23.0/2025,2000,g 10.5,6.0
# From MPEC 2022-WD2
6P/d'Arrest,e,19.4989,138.9506,178.0590,3.497707,0.1506707,0.61187549,193.3832,03/23.0/2025,2000,g  7.5,16.0
# From MPEC 2023-A50
7P/Pons-Winnecke,e,22.5520,93.2720,172.4466,3.397981,0.1573521,0.64378976,219.3455,03/23.0/2025,2000,g 10.0,6.0
# From MPEC 2022-HC2
8P/Tuttle,e,54.9844,270.1770,207.4737,5.705127,0.0723279,0.82066807,94.2090,03/23.0/2025,2000,g  8.0,8.0
# From MPEC 2024-YC7
9P/Tempel,e,10.7363,67.3892,184.4096,3.278706,0.1660161,0.47688430,186.4138,03/23.0/2025,2000,g  5.5,10.0
# From MPEC 2025-EG2
10P/Tempel,e,12.0274,117.8011,195.4988,3.063648,0.1838001,0.53737664,268.6201,03/23.0/2025,2000,g  5.0,10.0
# From MPEC 2024-R10
11P/Tempel-Swift-LINEAR,e,14.4336,238.8642,168.0472,3.283275,0.1656697,0.57748915,261.1234,03/23.0/2025,2000,g 17.0,4.0
# From MPEC 2025-DP4
12P/Pons-Brooks,e,74.1915,255.8557,199.0024,17.21950,0.0137935,0.95464374,4.6327,03/23.0/2025,2000,g  5.0,6.0
# From MPEC 2025-EB9
13P/Olbers,e,44.6664,85.8467,64.4207,16.89723,0.0141900,0.93043480,3.7736,03/23.0/2025,2000,g  5.0,6.0
# From MPEC 2024-LE0
